{
    "links": {
        "self": "http://www.neowsapp.com/rest/v1/neo/3825285?api_key=iIulBulltgU6a56xZRHN4H3l9WmuAYTsLGpBGhQ2"
    },
    "id": "3825285",
    "neo_reference_id": "3825285",
    "name": "(2018 LT6)",
    "designation": "2018 LT6",
    "nasa_jpl_url": "http://ssd.jpl.nasa.gov/sbdb.cgi?sstr=3825285",
    "absolute_magnitude_h": 22.3,
    "estimated_diameter": {
        "kilometers": {
            "estimated_diameter_min": 0.0921626549,
            "estimated_diameter_max": 0.2060819612
        },
        "meters": {
            "estimated_diameter_min": 92.1626548503,
            "estimated_diameter_max": 206.0819612321
        },
        "miles": {
            "estimated_diameter_min": 0.057267201,
            "estimated_diameter_max": 0.1280533543
        },
        "feet": {
            "estimated_diameter_min": 302.370924539,
            "estimated_diameter_max": 676.1219416887
        }
    },
    "is_potentially_hazardous_asteroid": false,
    "close_approach_data": [
        {
            "close_approach_date": "1972-06-04",
            "close_approach_date_full": "1972-Jun-04 13:50",
            "epoch_date_close_approach": 76513800000,
            "relative_velocity": {
                "kilometers_per_second": "23.0409578929",
                "kilometers_per_hour": "82947.4484144864",
                "miles_per_hour": "51540.3187106569"
            },
            "miss_distance": {
                "astronomical": "0.3712407692",
                "lunar": "144.4126592188",
                "kilometers": "55536828.329481604",
                "miles": "34508984.9210459752"
            },
            "orbiting_body": "Earth"
        },
        {
            "close_approach_date": "2018-07-01",
            "close_approach_date_full": "2018-Jul-01 06:35",
            "epoch_date_close_approach": 1530426900000,
            "relative_velocity": {
                "kilometers_per_second": "12.9454972709",
                "kilometers_per_hour": "46603.7901752314",
                "miles_per_hour": "28957.7828452708"
            },
            "miss_distance": {
                "astronomical": "0.0297334662",
                "lunar": "11.5663183518",
                "kilometers": "4448063.211236994",
                "miles": "2763898.3157947572"
            },
            "orbiting_body": "Earth"
        }
    ],
    "orbital_data": {
        "orbit_id": "5",
        "orbit_determination_date": "2020-09-11 07:39:33",
        "first_observation_date": "2018-06-15",
        "last_observation_date": "2018-06-23",
        "data_arc_in_days": 8,
        "observations_used": 67,
        "orbit_uncertainty": "8",
        "minimum_orbit_intersection": ".023375",
        "jupiter_tisserand_invariant": "3.296",
        "epoch_osculation": "2458287.5",
        "eccentricity": ".6012550845955406",
        "semi_major_axis": "2.325004649480908",
        "inclination": "8.12176038239808",
        "ascending_node_longitude": "93.05914840896173",
        "orbital_period": "1294.89384171228",
        "perihelion_distance": ".9270837822722398",
        "perihelion_argument": "230.5241905323256",
        "aphelion_distance": "3.722925516689577",
        "perihelion_time": "2458334.248482135024",
        "mean_anomaly": "347.0032175407101",
        "mean_motion": ".2780150684197868",
        "equinox": "J2000",
        "orbit_class": {
            "orbit_class_type": "APO",
            "orbit_class_description": "Near-Earth asteroid orbits which cross the Earth’s orbit similar to that of 1862 Apollo",
            "orbit_class_range": "a (semi-major axis) > 1.0 AU; q (perihelion) < 1.017 AU"
        }
    },
    "is_sentry_object": false
}